[{"OBJECT_NAME":"STARLINK-34963","OBJECT_ID":"2025-179H","EPOCH":"2026-03-09T16:54:12.774528","MEAN_MOTION":15.05654928,"ECCENTRICITY":0.00025698,"INCLINATION":97.6023,"RA_OF_ASC_NODE":113.0284,"ARG_OF_PERICENTER":120.1192,"MEAN_ANOMALY":240.0289,"EPHEMERIS_TYPE":0,"CLASSIFICATION_TYPE":"U","NORAD_CAT_ID":65242,"ELEMENT_SET_NO":999,"REV_AT_EPOCH":3197,"BSTAR":0.00038689906,"MEAN_MOTION_DOT":5.527e-5,"MEAN_MOTION_DDOT":0},{"OBJECT_NAME":"CZ-6A R\/B","OBJECT_ID":"2022-031C","EPOCH":"2026-03-09T19:50:55.360896","MEAN_MOTION":15.07476837,"ECCENTRICITY":0.00174842,"INCLINATION":97.8104,"RA_OF_ASC_NODE":273.2347,"ARG_OF_PERICENTER":181.6412,"MEAN_ANOMALY":178.4761,"EPHEMERIS_TYPE":0,"CLASSIFICATION_TYPE":"U","NORAD_CAT_ID":52152,"ELEMENT_SET_NO":999,"REV_AT_EPOCH":21633,"BSTAR":0.00020233161,"MEAN_MOTION_DOT":3.012e-5,"MEAN_MOTION_DDOT":0}]
